OBJECT_NAME,OBJECT_ID,EPOCH,MEAN_MOTION,ECCENTRICITY,INCLINATION,RA_OF_ASC_NODE,ARG_OF_PERICENTER,MEAN_ANOMALY,EPHEMERIS_TYPE,CLASSIFICATION_TYPE,NORAD_CAT_ID,ELEMENT_SET_NO,REV_AT_EPOCH,BSTAR,MEAN_MOTION_DOT,MEAN_MOTION_DDOT
AAUSAT 3,2013-009B,2026-06-22T11:04:51.150432,14.39944873,.00111188,98.3704,357.1354,189.9764,170.1205,0,U,39087,999,69793,.15960783E-3,.46E-5,0
STRAND-1,2013-009E,2026-06-22T11:40:33.934368,14.37165718,.00080121,98.3925,353.5904,207.9512,152.1246,0,U,39090,999,69782,.79259046E-4,.193E-5,0
BRITE-AUSTRIA,2013-009F,2026-06-22T10:22:06.340512,14.36543788,.00093833,98.3998,352.7378,219.2223,140.8284,0,U,39091,999,69780,.55016594E-4,.119E-5,0
UNIBRITE,2013-009G,2026-06-22T17:21:40.292928,14.36415060,.00083761,98.4037,353.1342,213.8438,146.2215,0,U,39092,999,69778,.56978578E-4,.124E-5,0
AIST-2 (RS43),2013-015D,2026-06-22T19:49:26.768928,15.26351341,.00183076,64.8684,238.8932,247.3939,112.5255,0,U,39133,999,72476,.1550272E-3,.3851E-4,0
GAOFEN-1,2013-018A,2026-06-22T19:45:25.380288,14.76540583,.00157571,97.9088,245.7769,246.5803,113.3751,0,U,39150,999,70907,.4098495E-4,.235E-5,0
NEE-01 PEGASO,2013-018B,2026-06-22T08:33:53.655264,14.93683879,.0013504,98.1232,317.6780,142.4574,217.7590,0,U,39151,999,71147,.23560247E-3,.2434E-4,0
TURKSAT-3USAT,2013-018C,2026-06-22T16:45:07.997472,14.96455936,.00131504,97.7927,264.5006,83.1558,277.1159,0,U,39152,999,71191,.16802176E-3,.185E-4,0
CUBEBUG-1 (CAPITAN BETO),2013-018D,2026-06-22T17:09:26.540928,14.97323375,.00127401,98.1664,333.9014,128.0307,232.2065,0,U,39153,999,71189,.2258213E-3,.256E-4,0
PROBA-V,2013-021A,2026-06-22T16:07:10.540992,14.23597930,.00053385,98.3586,152.0076,110.8864,249.2887,0,U,39159,999,68189,.41346626E-4,.53E-6,0
ESTCUBE 1,2013-021C,2026-06-22T09:29:43.279584,14.81412811,.00081598,97.7291,227.3981,9.1033,351.0327,0,U,39161,999,70579,.14611312E-3,.1093E-4,0
ARIRANG-5 (KOMPSAT-5),2013-042A,2026-06-22T19:39:54.805248,15.04497153,.0005302,97.6201,0.4409,108.1574,252.0230,0,U,39227,999,70470,.34162554E-4,.418E-5,0
GONETS-M 5,2013-048A,2026-06-22T19:55:28.366752,12.42891817,.00163452,82.4839,339.8636,197.6465,162.4049,0,U,39249,999,57958,-.1455344E-4,.8E-7,0
GONETS-M 7,2013-048C,2026-06-22T19:01:59.044800,12.42914573,.00171176,82.4906,342.8119,199.1564,160.8874,0,U,39251,999,57953,-.16786845E-3,-.13E-6,0
FENGYUN 3C,2013-052A,2026-06-22T20:08:12.899616,14.15756043,.001494,98.4982,147.4544,11.9004,348.2521,0,U,39260,999,65936,.48580457E-4,.54E-6,0
CASSIOPE,2013-055A,2026-06-22T19:16:30.452736,15.25681282,.02906651,80.9143,59.8998,43.5612,318.8176,0,U,39265,999,66852,.46002437E-3,.42326E-3,-.49946E-6
APRIZESAT 7,2013-066A,2026-06-22T15:43:07.151232,14.91572744,.00354541,97.7709,126.7963,190.7238,169.3229,0,U,39416,999,68204,.60844841E-4,.559E-5,0
ZACUBE-1 (TSHEPISOSAT),2013-066B,2026-06-22T08:09:15.023808,15.01210891,.00414828,97.8063,135.7033,229.9888,129.7692,0,U,39417,999,68150,.16389845E-3,.2077E-4,0
APRIZESAT 8,2013-066K,2026-06-22T14:09:01.154016,14.87660607,.00443235,97.8221,120.9821,268.1711,91.4429,0,U,39425,999,68047,.72863149E-4,.617E-5,0
CINEMA-3 (KHUSAT-2),2013-066L,2026-06-22T11:45:35.771904,14.78306224,.00894263,97.8399,85.5467,194.1959,165.6738,0,U,39426,999,67523,.95217754E-4,.683E-5,0
TRITON-1,2013-066M,2026-06-22T16:45:17.911008,14.81718746,.00887916,97.8236,83.3793,215.6588,143.8674,0,U,39427,999,67490,.13144625E-3,.1051E-4,0
DELFI-N3XT,2013-066N,2026-06-22T12:46:13.808928,14.95123908,.00740292,97.8335,93.8382,187.4140,172.5992,0,U,39428,999,67542,.40616289E-3,.4643E-4,0
GOMX-1,2013-066Q,2026-06-22T20:06:14.251680,14.69476850,.01299627,97.6484,13.9436,59.6466,301.7518,0,U,39430,999,67074,.21903975E-3,.1427E-4,0
BRITE-PL1 (LEM),2013-066R,2026-06-22T07:03:50.718528,14.51372790,.01897457,97.7967,285.2633,355.7755,4.1831,0,U,39431,999,66467,.47813517E-4,.19E-5,0
ICUBE-1,2013-066S,2026-06-22T18:24:18.006048,15.25965462,.00143852,97.5694,159.5036,316.8552,43.1558,0,U,39432,999,68526,.41786479E-3,.10694E-3,0
VELOX-PII,2013-066Y,2026-06-22T14:19:51.018528,14.93137277,.00518448,97.8738,124.9670,326.5443,33.2504,0,U,39438,999,67864,.23796915E-3,.2485E-4,0
CUBEBUG-2 (LO-74),2013-066AA,2026-06-22T10:07:40.152864,14.93801192,.00579912,97.8906,122.4220,11.9910,348.2675,0,U,39440,999,67777,.29960509E-3,.3222E-4,0
NEE-02 KRYSAOR,2013-066AB,2026-06-21T18:51:59.327712,14.86634214,.00674561,97.8893,111.9678,55.4248,305.3307,0,U,39441,999,67688,.1871779E-3,.1673E-4,0
FUNCUBE-1 (AO-73),2013-066AE,2026-06-22T10:13:17.697792,15.09537633,.00362081,97.8272,144.9807,182.8900,177.2125,0,U,39444,999,68045,.26631498E-3,.4268E-4,0
HINCUBE,2013-066AF,2026-06-22T15:48:45.031392,15.08329043,.00327603,97.7969,142.2631,189.1307,170.9329,0,U,39445,999,68035,.3353168E-3,.5202E-4,0
UWE-3,2013-066AG,2026-06-22T10:17:56.997888,14.97061756,.0046984,97.8705,129.5379,303.4981,56.1755,0,U,39446,999,67836,.31599554E-3,.3661E-4,0
SMDC ONE 2.4,2013-072H,2026-06-22T12:51:59.099616,15.18267649,.01460952,120.4948,12.7368,24.7023,336.0963,0,U,39469,999,11864,.29299619E-3,.7591E-4,0
CP8 (IPEX),2013-072K,2026-06-22T09:49:49.990368,15.08143823,.01656006,120.4674,318.2839,7.9422,352.4219,0,U,39471,999,11602,.23276907E-3,.4572E-4,0
COSMOS 2488 (RODNIK-S 7),2013-076A,2026-06-22T20:00:16.414848,12.42905631,.0020886,82.4836,165.1772,83.7146,276.6312,0,U,39483,999,56659,-.243651E-3,-.24E-6,0
COSMOS 2489 (RODNIK-S 8),2013-076B,2026-06-22T19:24:44.074080,12.42879279,.00227068,82.4872,166.5732,83.6787,276.6878,0,U,39484,999,56664,-.44459741E-3,-.52E-6,0
COSMOS 2490 (RODNIK-S 9),2013-076C,2026-06-22T18:44:16.063008,12.42878469,.0022834,82.4820,164.6557,98.5550,261.8118,0,U,39485,999,56657,.38422302E-3,.63E-6,0
AIST-1 (RS41),2013-078C,2026-06-22T18:40:33.456864,14.96081759,.00151968,82.4155,265.4587,257.8729,102.0790,0,U,39492,999,67608,.61384606E-4,.717E-5,0
KAZEOSAT 1,2014-024A,2026-06-22T20:23:59.847936,14.42081708,.00012824,98.3200,246.1569,75.6276,284.5056,0,U,39731,999,63937,.25967031E-4,.43E-6,0
COSMOS 2496 (RODNIK-S 10),2014-028A,2026-06-22T19:39:00.322272,12.42879058,.00213426,82.4452,105.2044,67.2917,293.0416,0,U,39761,999,54821,.5533174E-3,.87E-6,0
COSMOS 2497 (RODNIK-S 11),2014-028B,2026-06-22T19:03:18.410112,12.42895179,.00218879,82.4500,106.9117,62.5756,297.7547,0,U,39762,999,54821,.14646293E-2,.213E-5,0
COSMOS 2498 (RODNIK-S 12),2014-028C,2026-06-22T18:30:29.671200,12.42981020,.00226045,82.4460,105.4107,62.2538,298.0831,0,U,39763,999,54824,.13218739E-2,.193E-5,0
COSMOS 2499 (RS47),2014-028E,2026-06-22T19:34:52.152960,12.82902619,.02311433,82.4490,248.6308,348.7136,10.8831,0,U,39765,999,56574,.4199533E-5,.11E-6,0
HODOYOSHI-4,2014-033B,2026-06-22T19:36:02.535264,14.88140857,.0022066,97.5462,358.3676,288.7176,71.1647,0,U,40011,999,64964,.15748961E-3,.1404E-4,0
UNISAT-6,2014-033C,2026-06-22T07:26:50.449632,14.88266927,.00460136,97.7885,325.9320,52.8797,307.6611,0,U,40012,999,64692,.23554391E-3,.2162E-4,0
DEIMOS-2,2014-033D,2026-06-22T19:26:36.816576,14.93741091,.00014325,97.5823,48.1008,61.3491,298.7874,0,U,40013,999,63856,.16095667E-3,.165E-4,0
BUGSAT-1 (TITA),2014-033E,2026-06-22T20:18:25.479936,15.15638095,.00285094,98.0426,266.7261,159.1597,201.0803,0,U,40014,999,65669,.21355929E-3,.4024E-4,0
SAUDISAT 4,2014-033G,2026-06-22T15:56:49.996320,14.79550318,.00459568,97.7590,319.6097,56.6864,303.8736,0,U,40016,999,64688,.63916945E-4,.435E-5,0
APRIZESAT 9,2014-033J,2026-06-22T15:18:03.748896,14.74220729,.00661224,97.9068,306.7031,181.5913,178.5096,0,U,40018,999,64436,.83035138E-4,.515E-5,0
BRITE-CA1 (TORONTO),2014-033L,2026-06-22T16:15:07.920864,14.72683180,.00772401,97.9745,302.5040,259.1141,100.1368,0,U,40020,999,64302,.9018558E-4,.548E-5,0
DUCHIFAT-1,2014-033M,2026-06-21T16:32:36.420288,15.65399754,.00022821,98.0446,232.4851,109.8910,250.2594,0,U,40021,999,65645,.8587898E-3,.86182E-3,0
NANOSATC-BR1,2014-033Q,2026-06-22T00:58:00.921216,15.31587062,.00047772,98.0725,205.8585,150.5546,209.5963,0,U,40024,999,65472,.43233401E-3,.13112E-3,0
QB50P1,2014-033R,2026-06-22T11:43:14.710944,15.18326980,.00083264,98.0967,185.0059,195.8641,164.2332,0,U,40025,999,65383,.2950677E-3,.5984E-4,0
DTUSAT-2,2014-033W,2026-06-22T17:16:23.695680,15.15075474,.00071443,98.0871,171.7981,203.6150,156.4753,0,U,40030,999,65352,.26748939E-3,.4933E-4,0
QB50P2,2014-033Y,2026-06-22T17:07:24.826656,15.15218564,.00085529,98.0756,170.9379,146.3067,213.8709,0,U,40032,999,65350,.26896152E-3,.4982E-4,0
PERSEUS-M1,2014-033AF,2026-06-22T18:57:15.300288,14.95646898,.00099183,97.9644,118.0134,280.1587,79.8514,0,U,40039,999,65147,.14957901E-3,.1603E-4,0
POLYITAN-1,2014-033AJ,2026-06-22T12:49:00.321600,15.33415687,.00088567,98.0946,200.3013,126.2790,233.9269,0,U,40042,999,65441,.45497437E-3,.14633E-3,0
TIGRISAT,2014-033AK,2026-06-22T04:03:10.904544,14.85177117,.00504016,97.7838,323.0661,59.2753,301.3413,0,U,40043,999,64636,.16190855E-3,.1363E-4,0
AISAT,2014-034B,2026-06-22T08:04:07.532256,15.08906296,.00085297,98.2381,86.1183,193.0116,167.0892,0,U,40054,999,64798,.42142249E-3,.658E-4,0
CANX-4,2014-034C,2026-06-22T05:14:09.938112,14.81271990,.00127892,98.3117,48.7158,1.3069,358.8174,0,U,40055,999,64527,.89691837E-4,.642E-5,0
CANX-5,2014-034D,2026-06-22T05:11:49.502688,14.81289258,.00127886,98.3119,48.7580,1.4974,358.6273,0,U,40056,999,63608,.89720859E-4,.643E-5,0
VELOX-I,2014-034E,2026-06-22T19:16:39.948096,14.97916952,.00061525,98.2518,79.1237,247.7775,112.2793,0,U,40057,999,64744,.29472589E-3,.3408E-4,0
GONETS-M 10,2014-036C,2026-06-22T18:51:05.668128,12.42945970,.00228237,82.5118,304.1971,128.8556,231.4565,0,U,40063,999,54294,.28369725E-3,.49E-6,0
METEOR-M 2,2014-037A,2026-06-22T20:19:57.503712,14.21462314,.00064846,98.5119,149.3850,30.2400,329.9151,0,U,40069,999,62012,.29796972E-4,.23E-6,0
DX1,2014-037C,2026-06-22T19:13:26.721408,14.90001060,.00055618,98.3872,135.8432,252.8371,107.2237,0,U,40071,999,64694,.13080837E-3,.1199E-4,0
